{
"type": "FeatureCollection",
"name": "Diques",
"crs": { "type": "name", "properties": { "name": "urn:ogc:def:crs:OGC:1.3:CRS84" } },
"features": [
{ "type": "Feature", "properties": { "NOMBRE": "FRIAS", "AREA_CUENC": "2600 ha", "VOL_EMBALS": "2,3 hm3", "ALTURAPRES": "30 metros", "AO": "1971", "TIPOPRESA": "Con nucleo impermeable y escollerado de proteccion de 30 metros de altura sobre el cauce principal", "CORONAMIEN": "470 metros", "EVACUACINH": "26 m3/seg a traves de una torreta circular", "ALIVIADERO": "380 m3/seg. Ubicado en margen izquierda", "CANALDEDES": "1 descargador de fondo" }, "geometry": { "type": "MultiLineString", "coordinates": [ [ [ -68.894434536314648, -32.899398041062575 ], [ -68.894554847971705, -32.89953649834478 ], [ -68.894621485019528, -32.899697064881529 ], [ -68.895385977504617, -32.903440469823622 ] ] ] } },
{ "type": "Feature", "properties": { "NOMBRE": "MAURE", "AREA_CUENC": "6000 ha", "VOL_EMBALS": "0,5 hm3", "ALTURAPRES": "20 metros", "AO": "1939/1949", "TIPOPRESA": "Escollera de 20 metros de altura", "CORONAMIEN": "167 metros", "EVACUACINH": "38 m3/seg a traves de dos torretas", "ALIVIADERO": "200 m3/seg. Ubicado en margen izquierda", "CANALDEDES": "Trapecial de hormigon armado" }, "geometry": { "type": "MultiLineString", "coordinates": [ [ [ -68.892455193016374, -32.933364343421701 ], [ -68.892455193016374, -32.933364343421722 ], [ -68.891565038168508, -32.934350540114842 ], [ -68.891058624341682, -32.935067965864363 ] ] ] } },
{ "type": "Feature", "properties": { "NOMBRE": "SAN ISIDRO", "AREA_CUENC": "27080 ha", "VOL_EMBALS": null, "ALTURAPRES": "8 metros", "AO": "Azud San Isidro (1960), longitud 880 metros.", "TIPOPRESA": "En 2007 el azud se reforzo con revestimiento del terraplen de tierra, con colchonetas de piedra. Se construyo un diente constituido con roca reforzado con hormigon simple, de manera de controlar la erosion regresiva", "CORONAMIEN": null, "EVACUACINH": null, "ALIVIADERO": "Ubicado en margen izquierda", "CANALDEDES": "Azud y colector Las Heras" }, "geometry": { "type": "MultiLineString", "coordinates": [ [ [ -68.924406771035734, -32.860386439947177 ], [ -68.925151760800702, -32.861917027604271 ], [ -68.926648861980809, -32.864746726133745 ], [ -68.927004528411345, -32.865361475176336 ], [ -68.927093021620706, -32.865530577216113 ] ] ] } },
{ "type": "Feature", "properties": { "NOMBRE": "PAPAGAYOS", "AREA_CUENC": "5700 ha", "VOL_EMBALS": "0,8 hm3", "ALTURAPRES": "17,2 metros", "AO": "1942", "TIPOPRESA": "De piedra mampuesta de 19,5 metros de altura sobre el cauce principal", "CORONAMIEN": "200 metros", "EVACUACINH": "35 m3/seg a traves de dos torretas", "ALIVIADERO": "Ubicado en margen derecha", "CANALDEDES": "2 cauces naturales de evacuacion" }, "geometry": { "type": "MultiLineString", "coordinates": [ [ [ -68.911479894907941, -32.881015172819239 ], [ -68.911163570564739, -32.881597176685389 ], [ -68.911055715551157, -32.881834619344751 ], [ -68.910922146825101, -32.8821451985457 ], [ -68.910687392657962, -32.882771365981732 ] ] ] } }
]
}
