{
"type": "FeatureCollection",
"name": "Hoja 3369-16",
"crs": { "type": "name", "properties": { "name": "urn:ogc:def:crs:OGC:1.3:CRS84" } },
"features": [
{ "type": "Feature", "properties": { "fid": 1, "DN": 1 }, "geometry": { "type": "Polygon", "coordinates": [ [ [ -69.00006696011927, -32.666690089445709 ], [ -69.00006696011927, -33.000054891382447 ], [ -68.499885009921513, -33.000054891382433 ], [ -68.499885009921513, -32.666690089445687 ], [ -69.00006696011927, -32.666690089445709 ] ] ] } }
]
}
